[{"OBJECT_NAME":"OBJECT P","OBJECT_ID":"2023-091P","EPOCH":"2026-03-09T22:51:54.228672","MEAN_MOTION":15.15656196,"ECCENTRICITY":0.00167439,"INCLINATION":97.5224,"RA_OF_ASC_NODE":125.9166,"ARG_OF_PERICENTER":108.1275,"MEAN_ANOMALY":252.1782,"EPHEMERIS_TYPE":0,"CLASSIFICATION_TYPE":"U","NORAD_CAT_ID":57179,"ELEMENT_SET_NO":999,"REV_AT_EPOCH":14875,"BSTAR":0.00031146845,"MEAN_MOTION_DOT":5.878e-5,"MEAN_MOTION_DDOT":0},{"OBJECT_NAME":"SPEQTRE","OBJECT_ID":"2025-276DH","EPOCH":"2026-03-09T18:08:43.723104","MEAN_MOTION":15.19499769,"ECCENTRICITY":0.00013871,"INCLINATION":97.4277,"RA_OF_ASC_NODE":144.1551,"ARG_OF_PERICENTER":149.2003,"MEAN_ANOMALY":210.9313,"EPHEMERIS_TYPE":0,"CLASSIFICATION_TYPE":"U","NORAD_CAT_ID":66769,"ELEMENT_SET_NO":999,"REV_AT_EPOCH":1533,"BSTAR":0.00033482906,"MEAN_MOTION_DOT":7.042e-5,"MEAN_MOTION_DDOT":0}]
